ONEWEB-0228             
1 48780U 21045P   24051.56999647  .00000209  00000+0  52139-3 0  9999
2 48780  87.8941  67.8842 0002005  89.2852 270.8508 13.15548546132886
